NORAD_CAT_ID,OBJECT_NAME,OBJECT_TYPE,EPOCH,MEAN_MOTION,ECCENTRICITY,INCLINATION,RA_OF_ASC_NODE,ARG_OF_PERICENTER,MEAN_ANOMALY,BSTAR,MEAN_MOTION_DOT,MEAN_MOTION_DDOT,TLE_LINE0,TLE_LINE1,TLE_LINE2,SEMIMAJOR_AXIS,PERIOD,APOGEE,PERIGEE,DECAYED
53855.0,STARLINK-4703,PAYLOAD,2022-12-12 14:00:01,15.18656903,0.0001259,53.2174,205.0772,101.2341,330.7861,-0.059284,-0.01146516,0.0,0 STARLINK-4703,1 53855U 22114AP  22346.58334491 -.01146516  00000-0 -59284-1 0  9995,2 53855  53.2174 205.0772 0001259 101.2341 330.7861 15.18656903  1308,6888.036,94.821,510.768,509.034,0.0
53855.0,STARLINK-4703,PAYLOAD,2022-12-12 22:00:00,15.17845905,0.0001347,53.2174,203.561,74.5651,20.3488,-0.060971,-0.01151342,0.0,0 STARLINK-4703,1 53855U 22114AP  22346.91667824 -.01151342  00000-0 -60971-1 0  9999,2 53855  53.2174 203.5610 0001347  74.5651  20.3488 15.17845905 13879,6890.489000000001,94.871,513.2819999999998,511.426,0.0
53855.0,STARLINK-4703,PAYLOAD,2022-12-13 14:00:01,15.16216654,0.0001385999999999,53.2176,200.5283,86.264,51.5094,-0.063676,-0.01147606,0.0,0 STARLINK-4703,1 53855U 22114AP  22347.58334491 -.01147606  00000-0 -63676-1 0  9997,2 53855  53.2176 200.5283 0001386  86.2640  51.5094 15.16216654  1301,6895.424,94.973,518.245,516.3340000000002,0.0
53855.0,STARLINK-4703,PAYLOAD,2022-12-13 22:00:00,15.15403222,0.0001447,53.2174,199.0177,78.9569,78.7777,-0.065244,-0.01148733,0.0,0 STARLINK-4703,1 53855U 22114AP  22347.91667824 -.01148733  00000-0 -65244-1 0  9998,2 53855  53.2174 199.0177 0001447  78.9569  78.7777 15.15403222 14029,6897.892,95.024,520.755,518.759,0.0
53855.0,STARLINK-4703,PAYLOAD,2022-12-14 14:00:01,15.13777775,0.000137,53.2169,195.9962,81.3906,113.3349,-0.068471,-0.01150928,0.0,0 STARLINK-4703,1 53855U 22114AP  22348.58334491 -.01150928  00000-0 -68471-1 0  9997,2 53855  53.2169 195.9962 0001370  81.3906 113.3349 15.13777775  1301,6902.829000000002,95.126,525.639,523.748,0.0
53855.0,STARLINK-4703,PAYLOAD,2022-12-14 22:00:00,15.12973925,0.000143,53.2169,194.4909,97.6121,114.1362,-0.070961,-0.01164845,0.0,0 STARLINK-4703,1 53855U 22114AP  22348.91667824 -.01164845  00000-0 -70961-1 0  9993,2 53855  53.2169 194.4909 0001430  97.6121 114.1362 15.12973925  1300,6905.273,95.177,528.126,526.151,0.0
53855.0,STARLINK-4703,PAYLOAD,2022-12-15 02:00:01,15.12553408,0.0001169,53.2172,193.7385,93.5738,306.3281,-0.0704549999999999,-0.01144581,0.0,0 STARLINK-4703,1 53855U 22114AP  22349.08334491 -.01144581  00000-0 -70455-1 0  9996,2 53855  53.2172 193.7385 0001169  93.5738 306.3281 15.12553408 14200,6906.553000000001,95.203,529.226,527.611,0.0
53855.0,STARLINK-4703,PAYLOAD,2022-12-15 14:00:01,15.11333483,0.0001424,53.2176,191.4816,94.6771,148.2016,-0.072983,-0.01145769,0.0,0 STARLINK-4703,1 53855U 22114AP  22349.58334491 -.01145769  00000-0 -72983-1 0  9998,2 53855  53.2176 191.4816 0001424  94.6771 148.2016 15.11333483  1305,6910.269,95.28,533.118,531.15,0.0
53855.0,STARLINK-4703,PAYLOAD,2022-12-15 22:00:00,15.10519184,0.0001426999999999,53.2176,189.9821,88.7086,168.2646,-0.074646,-0.01145608,0.0,0 STARLINK-4703,1 53855U 22114AP  22349.91667824 -.01145608  00000-0 -74646-1 0  9994,2 53855  53.2176 189.9821 0001427  88.7086 168.2646 15.10519184  1303,6912.753000000002,95.331,535.604,533.631,0.0
53855.0,STARLINK-4703,PAYLOAD,2022-12-16 04:00:00,15.09832838,0.0001511,53.2173,188.8567,69.4862,107.4326,-0.063071,-0.00951548,0.0,0 STARLINK-4703,1 53855U 22114AP  22350.16667824 -.00951548  00000-0 -63071-1 0  9990,2 53855  53.2173 188.8567 0001511  69.4862 107.4326 15.09832838 14369,6914.847,95.375,537.757,535.668,0.0
53855.0,STARLINK-4703,PAYLOAD,2022-12-16 14:00:01,15.089825400000002,0.0001347,53.2159,186.9825,94.5712,187.6576,-0.013571,-0.00210833,0.0,0 STARLINK-4703,1 53855U 22114AP  22350.58334491 -.00210833  00000-0 -13571-1 0  9992,2 53855  53.2159 186.9825 0001347  94.5712 187.6576 15.08982540  1301,6917.445,95.429,540.242,538.378,0.0
53855.0,STARLINK-4703,PAYLOAD,2022-12-16 16:00:00,15.0888883,0.0001338,53.2166,186.6092,92.0999,283.082,-0.0052878,-0.00083578,0.0,0 STARLINK-4703,1 53855U 22114AP  22350.66667824 -.00083578  00000-0 -52878-2 0  9998,2 53855  53.2166 186.6092 0001338  92.0999 283.0820 15.08888830 14441,6917.731,95.434,540.5219999999998,538.6709999999998,0.0
53855.0,STARLINK-4703,PAYLOAD,2022-12-16 22:00:00,15.08836418,0.0001361,53.2176,185.489,84.8489,209.0508,6.858e-05,8.04e-06,0.0,0 STARLINK-4703,1 53855U 22114AP  22350.91667824  .00000804  00000-0  68580-4 0  9994,2 53855  53.2176 185.4890 0001361  84.8489 209.0508 15.08836418  1301,6917.891,95.438,540.698,538.815,0.0
53855.0,STARLINK-4703,PAYLOAD,2022-12-17 06:00:00,15.08838572,0.0001319,53.2175,183.9912,87.5875,217.9047,-0.00024479,-4.181e-05,0.0,0 STARLINK-4703,1 53855U 22114AP  22351.25001157 -.00004181  00000-0 -24479-3 0  9995,2 53855  53.2175 183.9912 0001319  87.5875 217.9047 15.08838572 14527,6917.885,95.438,540.6619999999998,538.837,0.0
53855.0,STARLINK-4703,PAYLOAD,2022-12-17 14:00:01,15.08846099,0.0001315999999999,53.2149,182.4901,95.4085,221.7567,-0.0020741,-0.00033151,0.0,0 STARLINK-4703,1 53855U 22114AP  22351.58335648 -.00033151  00000-0 -20741-2 0  9992,2 53855  53.2149 182.4901 0001316  95.4085 221.7567 15.08846099  1303,6917.861999999999,95.437,540.637,538.816,0.0
53855.0,STARLINK-4703,PAYLOAD,2022-12-17 22:00:00,15.08800729,0.0001369,53.2148,180.9955,84.02799999999998,244.665,0.0019577,0.00030973,0.0,0 STARLINK-4703,1 53855U 22114AP  22351.91667824  .00030973  00000-0  19577-2 0  9995,2 53855  53.2148 180.9955 0001369  84.0280 244.6650 15.08800729  1300,6918.0,95.44,540.813,538.918,0.0
53855.0,STARLINK-4703,PAYLOAD,2022-12-18 08:00:01,15.08805993,0.0001277,53.2147,179.1233,92.1442,341.0114,0.0018089,0.00028591,0.0,0 STARLINK-4703,1 53855U 22114AP  22352.33334491  .00028591  00000-0  18089-2 0  9993,2 53855  53.2147 179.1233 0001277  92.1442 341.0114 15.08805993 14697,6917.984,95.44,540.7330000000002,538.966,0.0
53855.0,STARLINK-4703,PAYLOAD,2022-12-18 14:00:01,15.08835566,0.0001354,53.2151,178.0016,93.9099,257.9134,-0.00031715,-5.331e-05,0.0,0 STARLINK-4703,1 53855U 22114AP  22352.58334491 -.00005331  00000-0 -31715-3 0  9991,2 53855  53.2151 178.0016 0001354  93.9099 257.9134 15.08835566  1302,6917.894,95.438,540.696,538.822,0.0
53855.0,STARLINK-4703,PAYLOAD,2022-12-18 22:00:00,15.08809428,0.000139,53.2153,176.5075,81.1558,282.2514,0.0020719,0.00032813,0.0,0 STARLINK-4703,1 53855U 22114AP  22352.91667824  .00032813  00000-0  20719-2 0  9991,2 53855  53.2153 176.5075 0001390  81.1558 282.2514 15.08809428  1302,6917.974,95.439,540.8,538.877,0.0
53855.0,STARLINK-4703,PAYLOAD,2022-12-19 08:00:01,15.08808877,0.0001299,53.2163,174.6341,90.2326,17.6424,0.0020056,0.00031748,0.0,0 STARLINK-4703,1 53855U 22114AP  22353.33334491  .00031748  00000-0  20056-2 0  9999,2 53855  53.2163 174.6341 0001299  90.2326  17.6424 15.08808877 14840,6917.976,95.44,540.739,538.942,0.0
53855.0,STARLINK-4703,PAYLOAD,2022-12-19 10:00:00,15.08809872,0.0001337,53.2161,174.2597,91.2028,109.565,0.0023271,0.00036911,0.0,0 STARLINK-4703,1 53855U 22114AP  22353.41667824  .00036911  00000-0  23271-2 0  9996,2 53855  53.2161 174.2597 0001337  91.2028 109.5650 15.08809872  1305,6917.972,95.439,540.762,538.913,0.0
53855.0,STARLINK-4703,PAYLOAD,2022-12-19 22:00:00,15.08805004,0.0001441999999999,53.2168,172.0193,80.3082,317.8352,0.0034427,0.00054877,0.0,0 STARLINK-4703,1 53855U 22114AP  22353.91667824  .00054877  00000-0  34427-2 0  9997,2 53855  53.2168 172.0193 0001442  80.3082 317.8352 15.08805004  1302,6917.986999999999,95.44,540.85,538.855,0.0
53855.0,STARLINK-4703,PAYLOAD,2022-12-20 00:00:00,15.08751814,0.0001366,53.2166,171.6454,80.3059,50.742,0.013551,0.00221708,0.0,0 STARLINK-4703,1 53855U 22114AP  22354.00001157  .00221708  00000-0  13551-1 0  9992,2 53855  53.2166 171.6454 0001366  80.3059  50.7420 15.08751814 14946,6918.15,95.443,540.96,539.07,0.0
53855.0,STARLINK-4703,PAYLOAD,2022-12-20 23:16:05,15.08827607,0.0001159,53.2178,167.2894,83.917,276.1954,0.00026468,3.926e-05,0.0,0 STARLINK-4703,1 53855U 22114AP  22354.96951180  .00003926  00000-0  26468-3 0  9990,2 53855  53.2178 167.2894 0001159  83.9170 276.1954 15.08827607 15098,6917.918000000002,95.438,540.585,538.981,0.0
53855.0,STARLINK-4703,PAYLOAD,2022-12-21 00:51:29,15.08819766,0.0001116,53.2178,166.993,77.7699,282.3418,0.00021194,3.085e-05,0.0,0 STARLINK-4703,1 53855U 22114AP  22355.03575917  .00003085  00000-0  21194-3 0  9996,2 53855  53.2178 166.9930 0001116  77.7699 282.3418 15.08819766 15108,6917.941999999999,95.439,540.5790000000002,539.035,0.0
53855.0,STARLINK-4703,PAYLOAD,2022-12-21 11:59:11,15.08835259,0.0001247,53.2178,164.9108,90.9583,269.1552,2.6421e-05,1.33e-06,0.0,0 STARLINK-4703,1 53855U 22114AP  22355.49943623  .00000133  00000-0  26421-4 0  9999,2 53855  53.2178 164.9108 0001247  90.9583 269.1552 15.08835259 15171,6917.895,95.438,540.623,538.8969999999998,0.0
53855.0,STARLINK-4703,PAYLOAD,2022-12-22 03:53:02,15.08843841,0.0001233,53.2184,161.9372,87.0109,273.1024,4.5182e-05,4.31e-06,0.0,0 STARLINK-4703,1 53855U 22114AP  22356.16182967  .00000431  00000-0  45182-4 0  9996,2 53855  53.2184 161.9372 0001233  87.0109 273.1024 15.08843841 15270,6917.869000000002,95.437,540.587,538.881,0.0
53855.0,STARLINK-4703,PAYLOAD,2022-12-22 19:46:52,15.08852209,0.0001247,53.2183,158.9636,86.6388,273.4747,5.1496e-05,5.32e-06,0.0,0 STARLINK-4703,1 53855U 22114AP  22356.82422109  .00000532  00000-0  51496-4 0  9991,2 53855  53.2183 158.9636 0001247  86.6388 273.4747 15.08852209 15371,6917.843000000003,95.437,540.571,538.845,0.0
53855.0,STARLINK-4703,PAYLOAD,2022-12-23 03:43:49,15.08840063,0.0001399,53.2189,157.4761,81.6438,278.4713,-4.9943e-05,-1.083e-05,0.0,0 STARLINK-4703,1 53855U 22114AP  22357.15543140 -.00001083  00000-0 -49943-4 0  9995,2 53855  53.2189 157.4761 0001399  81.6438 278.4713 15.08840063 15428,6917.88,95.438,540.7130000000002,538.7769999999998,0.0
